NORAD_CAT_ID,OBJECT_NAME,OBJECT_TYPE,EPOCH,MEAN_MOTION,ECCENTRICITY,INCLINATION,RA_OF_ASC_NODE,ARG_OF_PERICENTER,MEAN_ANOMALY,BSTAR,MEAN_MOTION_DOT,MEAN_MOTION_DDOT,TLE_LINE0,TLE_LINE1,TLE_LINE2,SEMIMAJOR_AXIS,PERIOD,APOGEE,PERIGEE,DECAYED
53636.0,STARLINK-4586,PAYLOAD,2022-10-15 14:00:01,15.73275781,0.000237,53.215,48.1674,21.3774,354.8135,-0.00040471,-0.00057227,0.0,0 STARLINK-4586,1 53636U 22104BA  22288.58334491 -.00057227  00000-0 -40471-3 0  9995,2 53636  53.2150  48.1674 0002370  21.3774 354.8135 15.73275781  1306,6727.679,91.529,351.139,347.95,0.0
53636.0,STARLINK-4586,PAYLOAD,2022-10-15 22:00:01,15.73417347,0.0002518,53.2155,46.5175,13.7738,91.4881,-0.004722,-0.00622514,0.0,0 STARLINK-4586,1 53636U 22104BA  22288.91668981 -.00622514  00000-0 -47220-2 0  9991,2 53636  53.2155  46.5175 0002518  13.7738  91.4881 15.73417347  1306,6727.276,91.521,350.835,347.44699999999995,0.0
53636.0,STARLINK-4586,PAYLOAD,2022-10-16 06:00:00,15.73186229,0.0002229,53.2147,44.8666,23.1442,170.8443,0.00017363,0.00023803,0.0,0 STARLINK-4586,1 53636U 22104BA  22289.25001157  .00023803  00000-0  17363-3 0  9995,2 53636  53.2147  44.8666 0002229  23.1442 170.8443 15.73186229  7763,6727.934,91.534,351.2990000000001,348.3,0.0
53636.0,STARLINK-4586,PAYLOAD,2022-10-16 14:00:01,15.73185712,0.0002512,53.2148,43.219,18.8796,264.0593,0.00016568,0.00022682,0.0,0 STARLINK-4586,1 53636U 22104BA  22289.58334491  .00022682  00000-0  16568-3 0  9991,2 53636  53.2148  43.2190 0002512  18.8796 264.0593 15.73185712  1309,6727.936,91.534,351.491,348.111,0.0
53636.0,STARLINK-4586,PAYLOAD,2022-10-16 22:00:00,15.732150199999998,0.000262,53.2148,41.5693,17.9917,353.8676,-0.00021484,-0.00030688,0.0,0 STARLINK-4586,1 53636U 22104BA  22289.91667824 -.00030688  00000-0 -21484-3 0  9997,2 53636  53.2148  41.5693 0002620  17.9917 353.8676 15.73215020  1308,6727.852,91.532,351.48,347.955,0.0
53636.0,STARLINK-4586,PAYLOAD,2022-10-17 06:00:00,15.73204249,0.0002426,53.2152,39.9175,20.8575,79.9344,2.3757e-05,2.714e-05,0.0,0 STARLINK-4586,1 53636U 22104BA  22290.25001157  .00002714  00000-0  23757-4 0  9990,2 53636  53.2152  39.9175 0002426  20.8575  79.9344 15.73204249  7929,6727.8830000000025,91.533,351.38,348.116,0.0
53636.0,STARLINK-4586,PAYLOAD,2022-10-17 14:00:01,15.7321707,0.0002712,53.215,38.2706,16.7303,173.0043,8.408100000000001e-05,0.00011204,0.0,0 STARLINK-4586,1 53636U 22104BA  22290.58334491  .00011204  00000-0  84081-4 0  9997,2 53636  53.2150  38.2706 0002712  16.7303 173.0043 15.73217070  1304,6727.847,91.532,351.536,347.88699999999994,0.0
53636.0,STARLINK-4586,PAYLOAD,2022-10-17 22:00:00,15.73246009,0.0002713,53.2141,36.6203,16.2235,262.4599,-0.00080826,-0.00112796,0.0,0 STARLINK-4586,1 53636U 22104BA  22290.91667824 -.00112796  00000-0 -80826-3 0  9995,2 53636  53.2141  36.6203 0002713  16.2235 262.4599 15.73246009  1301,6727.764,91.531,351.454,347.80400000000014,0.0
53636.0,STARLINK-4586,PAYLOAD,2022-10-18 14:00:01,15.73145265,0.0002976,53.2145,33.3218,23.6176,72.9052,0.00035091,0.00048806,0.0,0 STARLINK-4586,1 53636U 22104BA  22291.58334491  .00048806  00000-0  35091-3 0  9992,2 53636  53.2145  33.3218 0002976  23.6176  72.9052 15.73145265  8130,6728.051,91.536,351.918,347.914,0.0
53636.0,STARLINK-4586,PAYLOAD,2022-10-18 22:00:00,15.73205655,0.0002471,53.2174,31.67,19.5613,165.8672,-2.2695e-05,-3.807e-05,0.0,0 STARLINK-4586,1 53636U 22104BA  22291.91667824 -.00003807  00000-0 -22695-4 0  9999,2 53636  53.2174  31.6700 0002471  19.5613 165.8672 15.73205655  1301,6727.879,91.533,351.407,348.082,0.0
53636.0,STARLINK-4586,PAYLOAD,2022-10-19 14:00:01,15.73243088,0.0003076,53.2144,28.3732,19.794,343.4684,-0.0003956,-0.00055893,0.0,0 STARLINK-4586,1 53636U 22104BA  22292.58334491 -.00055893  00000-0 -39560-3 0  9994,2 53636  53.2144  28.3732 0003076  19.7940 343.4684 15.73243088  8286,6727.772,91.531,351.707,347.5680000000001,0.0
53636.0,STARLINK-4586,PAYLOAD,2022-10-19 22:00:00,15.73246831,0.0003047,53.2156,26.7225,20.2281,71.9952,-0.00058095,-0.00081555,0.0,0 STARLINK-4586,1 53636U 22104BA  22292.91667824 -.00081555  00000-0 -58095-3 0  9998,2 53636  53.2156  26.7225 0003047  20.2281  71.9952 15.73246831  1307,6727.762,91.53,351.677,347.577,0.0
53636.0,STARLINK-4586,PAYLOAD,2022-10-20 06:00:00,15.73197995,0.0002796999999999,53.2143,25.0718,15.5443,165.6485,0.00040311,0.00056336,0.0,0 STARLINK-4586,1 53636U 22104BA  22293.25001157  .00056336  00000-0  40311-3 0  9996,2 53636  53.2143  25.0718 0002797  15.5443 165.6485 15.73197995  8394,6727.901,91.533,351.648,347.884,0.0
53636.0,STARLINK-4586,PAYLOAD,2022-10-20 14:00:01,15.73242916,0.0003095,53.2145,23.4244,13.0921,257.0264,-0.00046971,-0.00066167,0.0,0 STARLINK-4586,1 53636U 22104BA  22293.58334491 -.00066167  00000-0 -46971-3 0  9995,2 53636  53.2145  23.4244 0003095  13.0921 257.0264 15.73242916  8449,6727.773,91.531,351.72,347.556,0.0
53636.0,STARLINK-4586,PAYLOAD,2022-10-20 22:00:00,15.73197778,0.0003083999999999,53.2152,21.7734,12.693,346.38,-0.00038682,-0.00054569,0.0,0 STARLINK-4586,1 53636U 22104BA  22293.91667824 -.00054569  00000-0 -38682-3 0  9994,2 53636  53.2152  21.7734 0003084  12.6930 346.3800 15.73197778  1306,6727.901999999999,91.533,351.841,347.69199999999995,0.0
53636.0,STARLINK-4586,PAYLOAD,2022-10-21 06:00:00,15.73164311,0.0003,53.2151,20.1227,17.4155,70.5416,0.00049001,0.00068618,0.0,0 STARLINK-4586,1 53636U 22104BA  22294.25001157  .00068618  00000-0  49001-3 0  9998,2 53636  53.2151  20.1227 0003000  17.4155  70.5416 15.73164311  8555,6727.996999999999,91.535,351.88,347.844,0.0
53636.0,STARLINK-4586,PAYLOAD,2022-10-21 14:00:01,15.73232686,0.0003341,53.2149,18.4761,15.6589,161.247,8.6595e-05,0.00011566,0.0,0 STARLINK-4586,1 53636U 22104BA  22294.58334491  .00011566  00000-0  86595-4 0  9994,2 53636  53.2149  18.4761 0003341  15.6589 161.2470 15.73232686  1309,6727.802,91.531,351.915,347.4190000000001,0.0
53636.0,STARLINK-4586,PAYLOAD,2022-10-21 22:00:00,15.73246246,0.0003163,53.2141,16.825,11.7976,254.0687,-0.0008357999999999,-0.0011658,0.0,0 STARLINK-4586,1 53636U 22104BA  22294.91667824 -.00116580  00000-0 -83580-3 0  9994,2 53636  53.2141  16.8250 0003163  11.7976 254.0687 15.73246246  1303,6727.763000000001,91.53,351.756,347.5,0.0
53636.0,STARLINK-4586,PAYLOAD,2022-10-22 06:00:00,15.7315753,0.0003036,53.2144,15.1747,10.5797,344.2221,0.00044114,0.00061643,0.0,0 STARLINK-4586,1 53636U 22104BA  22295.25001157  .00061643  00000-0  44114-3 0  9990,2 53636  53.2144  15.1747 0003036  10.5797 344.2221 15.73157530  8700,6728.016,91.536,351.9240000000001,347.839,0.0
53636.0,STARLINK-4586,PAYLOAD,2022-10-22 14:00:01,15.732028,0.0003365,53.2146,13.5273,9.2589,74.4585,0.00027144,0.00037657,0.0,0 STARLINK-4586,1 53636U 22104BA  22295.58334491  .00037657  00000-0  27144-3 0  9998,2 53636  53.2146  13.5273 0003365   9.2589  74.4585 15.73202800  1302,6727.887,91.533,352.016,347.48800000000006,0.0
53636.0,STARLINK-4586,PAYLOAD,2022-10-22 22:00:00,15.73234506,0.0003319,53.2147,11.8763,7.9756,164.7093,-3.523e-06,-1.119e-05,0.0,0 STARLINK-4586,1 53636U 22104BA  22295.91667824 -.00001119  00000-0 -35230-5 0  9997,2 53636  53.2147  11.8763 0003319   7.9756 164.7093 15.73234506  1303,6727.797,91.531,351.895,347.42900000000014,0.0
53636.0,STARLINK-4586,PAYLOAD,2022-10-23 08:00:01,15.7325239,0.0003358,53.2146,9.8142,11.9333,2.0518,5.489300000000001e-05,7.106e-05,0.0,0 STARLINK-4586,1 53636U 22104BA  22296.33335648  .00007106  00000-0  54893-4 0  9995,2 53636  53.2146   9.8142 0003358  11.9333   2.0518 15.73252390  8875,6727.746,91.53,351.87,347.352,0.0
53636.0,STARLINK-4586,PAYLOAD,2022-10-23 14:00:01,15.73250256,0.0003581,53.2144,8.5785,11.9427,338.711,0.0001007,0.00013566,0.0,0 STARLINK-4586,1 53636U 22104BA  22296.58334491  .00013566  00000-0  10070-3 0  9992,2 53636  53.2144   8.5785 0003581  11.9427 338.7110 15.73250256  1301,6727.752,91.53,352.026,347.208,0.0
53636.0,STARLINK-4586,PAYLOAD,2022-10-23 22:00:00,15.73264352,0.0003392,53.214,6.9273,8.745,70.9045,-0.00092596,-0.00129009,0.0,0 STARLINK-4586,1 53636U 22104BA  22296.91667824 -.00129009  00000-0 -92596-3 0  9993,2 53636  53.2140   6.9273 0003392   8.7450  70.9045 15.73264352  8975,6727.712,91.529,351.8590000000001,347.295,0.0
53636.0,STARLINK-4586,PAYLOAD,2022-10-24 14:00:01,15.73047859,0.0003663,53.2143,3.6301,9.3068,248.1661,0.00071021,0.00099615,0.0,0 STARLINK-4586,1 53636U 22104BA  22297.58334491  .00099615  00000-0  71021-3 0  9995,2 53636  53.2143   3.6301 0003663   9.3068 248.1661 15.73047859  1301,6728.329000000002,91.542,352.659,347.72900000000016,0.0
53636.0,STARLINK-4586,PAYLOAD,2022-10-24 22:00:00,15.73121409,0.0003512,53.2143,1.9791,6.7754,339.4757,0.00089508,0.00126506,0.0,0 STARLINK-4586,1 53636U 22104BA  22297.91667824  .00126506  00000-0  89508-3 0  9990,2 53636  53.2143   1.9791 0003512   6.7754 339.4757 15.73121409  1305,6728.119000000002,91.538,352.347,347.621,0.0
53636.0,STARLINK-4586,PAYLOAD,2022-10-25 14:00:01,15.73158108,0.0003795,53.2138,358.6816,5.0787,159.0164,0.00063457,0.00089253,0.0,0 STARLINK-4586,1 53636U 22104BA  22298.58334491  .00089253  00000-0  63457-3 0  9997,2 53636  53.2138 358.6816 0003795   5.0787 159.0164 15.73158108  9234,6728.015,91.536,352.43300000000005,347.326,0.0
53636.0,STARLINK-4586,PAYLOAD,2022-10-25 22:00:01,15.73235177,0.0003612,53.2135,357.0303,7.592,245.4886,-0.00038733,-0.00054734,0.0,0 STARLINK-4586,1 53636U 22104BA  22298.91668981 -.00054734  00000-0 -38733-3 0  9995,2 53636  53.2135 357.0303 0003612   7.5920 245.4886 15.73235177  1302,6727.795,91.531,352.09,347.23,0.0
53636.0,STARLINK-4586,PAYLOAD,2022-10-26 06:00:00,15.7320839,0.0003597,53.2135,355.3808,10.8246,331.1252,0.00019843,0.00027334,0.0,0 STARLINK-4586,1 53636U 22104BA  22299.25001157  .00027334  00000-0  19843-3 0  9994,2 53636  53.2135 355.3808 0003597  10.8246 331.1252 15.73208390  9331,6727.871,91.533,352.156,347.316,0.0
